OBJECT_NAME,OBJECT_ID,EPOCH,MEAN_MOTION,ECCENTRICITY,INCLINATION,RA_OF_ASC_NODE,ARG_OF_PERICENTER,MEAN_ANOMALY,EPHEMERIS_TYPE,CLASSIFICATION_TYPE,NORAD_CAT_ID,ELEMENT_SET_NO,REV_AT_EPOCH,BSTAR,MEAN_MOTION_DOT,MEAN_MOTION_DDOT
CUBEBUG-2 (LO-74),2013-066AA,2026-07-09T02:24:20.780064,14.93942821,.00561801,97.8908,139.1745,316.1471,43.5295,0,U,39440,999,68026,.1629533E-3,.1725E-4,0
FUNCUBE-1 (AO-73),2013-066AE,2026-07-09T15:49:16.506048,15.09773935,.0037793,97.8287,162.5794,125.6357,234.8401,0,U,39444,999,68305,.31236E-3,.506E-4,0
UWE-3,2013-066AG,2026-07-08T08:04:01.539552,14.97171964,.00475215,97.8696,145.5560,248.4998,111.1154,0,U,39446,999,68074,.1520418E-3,.1733E-4,0
UNISAT-6,2014-033C,2026-07-09T15:44:35.801088,14.88353039,.0044631,97.7900,342.9767,356.2388,3.8487,0,U,40012,999,64950,.15181E-3,.1374E-4,0
DUCHIFAT-1,2014-033M,2026-07-09T02:48:14.645952,15.69759950,.0001719,98.0435,252.4424,258.2829,101.8238,0,U,40021,999,65918,.8115863E-3,.97268E-3,0
QB50P1,2014-033R,2026-07-08T23:06:16.072128,15.18602701,.00099759,98.0972,202.6398,143.0121,217.1801,0,U,40025,999,65633,.25681755E-3,.5242E-4,0
LILACSAT-2,2015-049K,2026-07-09T20:11:20.156064,15.52224887,.0008024,97.4632,228.5514,157.4718,202.6888,0,U,40908,999,59926,.2445E-3,.14753E-3,0
FOX-1A (AO-85),2015-058D,2026-07-09T00:24:29.327904,14.91065127,.01318917,64.7733,211.1378,48.1465,313.0815,0,U,40967,999,11682,.15541655E-3,.1641E-4,0
CAS-2T & KS-1Q,2016-066G,2026-07-09T03:01:32.902464,14.44761366,.03425416,98.3814,265.6112,63.1325,300.4448,0,U,41847,999,50796,.13108027E-3,.881E-5,0
RADFXSAT (FOX-1B),2017-073E,2026-07-08T10:32:46.606848,15.13003288,.0148105,97.4685,56.2209,255.0605,103.4188,0,U,43017,999,46860,.1974387E-3,.4488E-4,0
DIWATA-2B,2018-084H,2026-07-09T20:13:53.186016,15.00550664,.0013047,98.1221,28.0425,100.7862,259.4829,0,U,43678,999,41961,.14081E-3,.1713E-4,0
ES'HAIL 2,2018-090A,2026-07-09T18:54:30.714336,1.00268076,.0002089,0.0161,349.4100,163.6570,84.0928,0,U,43700,999,2790,0,.156E-5,0
FOX-1CLIFF (AO-95),2018-099N,2026-07-09T02:19:07.402944,15.27186791,.00069598,97.4375,250.2670,265.8117,94.2326,0,U,43770,999,41656,.28188115E-3,.7443E-4,0
ITASAT,2018-099AE,2026-07-09T02:05:14.286624,15.19333187,.001072,97.4019,241.1634,275.1562,84.8449,0,U,43786,999,41623,.21430012E-3,.4466E-4,0
JY1SAT (JO-97),2018-099AX,2026-07-08T16:29:49.927488,15.34370872,.00062391,97.4119,252.6045,178.6652,181.4609,0,U,43803,999,41692,.37201891E-3,.12315E-3,0
UWE-4,2018-111E,2026-07-09T06:35:43.813824,15.47549208,.00052707,97.5841,119.7053,218.3666,141.7210,0,U,43880,999,41419,.53767723E-3,.2764E-3,0
TIANYAN 01,2019-093C,2026-07-09T20:43:20.878176,14.86553400,.0014059,97.7520,262.5421,18.5101,341.6624,0,U,44881,999,35478,-.83355E-5,-.127E-5,0
RS-44 & BREEZE-KM R/B,2019-096E,2026-07-09T16:15:46.432800,12.79748940,.0218584,82.5238,324.7599,91.8312,270.7837,0,U,44909,999,30522,.36222E-5,.14E-6,0
SALSAT,2020-068K,2026-07-09T06:02:33.013536,15.30117525,.00085936,97.8858,194.6644,215.0810,144.9864,0,U,46495,999,31873,.19084228E-3,.5482E-4,0
XW-3 (CAS-9),2021-131B,2026-07-09T19:46:28.164576,14.41379055,.0004913,98.4979,283.0921,43.9982,316.1598,0,U,50466,999,23837,.11065E-3,.314E-5,0
GREENCUBE (IO-117),2022-080E,2026-07-09T06:49:55.485408,6.42583278,.00090276,70.1425,290.5613,284.8400,75.1260,0,U,53109,999,9348,0,-.3E-7,0
UMKA 1 (RS40S),2023-091G,2026-07-09T20:34:40.162656,15.21082977,.0013546,97.5042,249.4692,47.0116,313.2253,0,U,57172,999,16745,.18688E-3,.4092E-4,0
CUBESX-HSE 3 (RS42S),2023-091N,2026-07-09T18:44:06.484704,15.31796363,.0010246,97.5083,256.6602,21.1971,338.9692,0,U,57178,999,16788,.31773E-3,.9692E-4,0
MONITOR-3 (RS58S),2023-091Q,2026-07-09T20:32:19.845600,15.28304744,.001157,97.5075,254.4732,28.2270,331.9594,0,U,57180,999,16775,.27829E-3,.7611E-4,0
MONITOR-4 (RS57S),2023-091S,2026-07-09T20:00:21.459744,15.28391136,.0011576,97.5069,254.4232,28.5756,331.6116,0,U,57182,999,16775,.269E-3,.7373E-4,0
MONITOR-2 (RS39S),2023-091U,2026-07-09T18:37:04.253088,15.19123276,.0011931,97.5062,248.9137,41.7402,318.4740,0,U,57184,999,16738,.16182E-3,.3334E-4,0
SVYATOBOR 1 (RS60S),2023-091X,2026-07-09T20:47:58.121088,15.27005883,.0009305,97.5081,254.8130,23.2348,336.9310,0,U,57187,999,16777,.2436E-3,.6388E-4,0
VIZARD-METEO (RS38S),2023-091Z,2026-07-09T19:30:29.634336,15.36760705,.0006162,97.5083,260.7611,1.5183,358.6078,0,U,57189,999,16816,.346E-3,.12356E-3,0
POLYTECH-UNIVERSE 3 (RS46S),2023-091AB,2026-07-09T20:46:40.116576,15.19334726,.0016518,97.5038,248.5073,55.0481,305.2303,0,U,57191,999,16739,.15834E-3,.3287E-4,0
UTMN 2 (RS27S),2023-091AP,2026-07-09T20:25:52.629312,15.32617529,.0007301,97.5079,258.3932,9.9549,350.1836,0,U,57203,999,16801,.30327E-3,.9481E-4,0
