CUBEBUG-2 (LO-74)
1 39440U 13066AA  26190.10024051  .00001725  00000-0  16295-3 0  9998
2 39440  97.8908 139.1745 0056180 316.1471  43.5295 14.93942821680269
FUNCUBE-1 (AO-73)
1 39444U 13066AE  26190.65921882  .00005060  00000-0  31236-3 0  9998
2 39444  97.8287 162.5794 0037793 125.6357 234.8401 15.09773935683052
UWE-3
1 39446U 13066AG  26189.33612893  .00001733  00000-0  15204-3 0  9992
2 39446  97.8696 145.5560 0047522 248.4998 111.1154 14.97171964680741
UNISAT-6
1 40012U 14033C   26190.65596992  .00001374  00000-0  15181-3 0  9991
2 40012  97.7900 342.9767 0044631 356.2388   3.8487 14.88353039649500
DUCHIFAT-1
1 40021U 14033M   26190.11683618  .00097268  00000-0  81159-3 0  9999
2 40021  98.0435 252.4424 0001719 258.2829 101.8238 15.69759950659183
LILACSAT-2
1 40908U 15049K   26190.84120551  .00014753  00000-0  24450-3 0  9992
2 40908  97.4632 228.5514 0008024 157.4718 202.6888 15.52224887599267
CAS-2T & KS-1Q
1 41847U 16066G   26190.12607526  .00000881  00000-0  13108-3 0  9993
2 41847  98.3814 265.6112 0342542  63.1325 300.4448 14.44761366507964
FOX-1B (AO-91)
1 43017U 17073E   26189.43942832  .00004488  00000-0  19744-3 0  9996
2 43017  97.4685  56.2209 0148105 255.0605 103.4188 15.13003288468602
FUNCUBE-3 (EO-79)/QB50P1
1 40025U 14033R   26189.96268602  .00005242  00000-0  25682-3 0  9996
2 40025  98.0972 202.6398 0009976 143.0121 217.1801 15.18602701656335
FOX-1A (AO-85)
1 40967U 15058D   26190.01700611  .00001641  00000-0  15542-3 0  9991
2 40967  64.7733 211.1378 0131892  48.1465 313.0815 14.91065127116828
DIWATA-2B (PO-101)
1 43678U 18084H   26190.84297669  .00001713  00000-0  14081-3 0  9997
2 43678  98.1221  28.0425 0013047 100.7862 259.4829 15.00550664419615
ESHAIL-2
1 43700U 18090A   26190.78785549  .00000156  00000-0  00000+0 0  9994
2 43700   0.0161 349.4100 0002089 163.6570  84.0928  1.00268076 27901
ITASAT-1
1 43786U 18099AE  26190.08697091  .00004466  00000-0  21430-3 0  9996
2 43786  97.4019 241.1634 0010720 275.1562  84.8449 15.19333187416233
FOX-1CLIFF (AO-95)
1 43770U 18099N   26190.09661346  .00007443  00000-0  28188-3 0  9999
2 43770  97.4375 250.2670 0006960 265.8117  94.2326 15.27186791416566
JY1SAT (JO-97)
1 43803U 18099AX  26189.68738342  .00012315  00000-0  37202-3 0  9991
2 43803  97.4119 252.6045 0006239 178.6652 181.4609 15.34370872416921
UWE-4
1 43880U 18111E   26190.27481266  .00027640  00000-0  53768-3 0  9990
2 43880  97.5841 119.7053 0005271 218.3666 141.7210 15.47549208414192
CAS-6 (TO-108)
1 44881U 19093C   26190.86343609 -.00000127  00000-0 -83355-5 0  9995
2 44881  97.7520 262.5421 0014059  18.5101 341.6624 14.86553400354783
DOSAAF-85 (RS-44)
1 44909U 19096E   26190.67762075  .00000014  00000-0  36222-5 0  9994
2 44909  82.5238 324.7599 0218584  91.8312 270.7837 12.79748940305224
SALSAT (TUBSAT 22)
1 46495U 20068K   26190.25177099  .00005482  00000-0  19084-3 0  9996
2 46495  97.8858 194.6644 0008594 215.0810 144.9864 15.30117525318730
CAMSAT XW-3 (CAS-9)
1 50466U 21131B   26190.82393709  .00000314  00000-0  11065-3 0  9992
2 50466  98.4979 283.0921 0004913  43.9982 316.1598 14.41379055238371
ROBUSTA 1F (MTCUBE-2)
1 53109U 22080E   26190.28466997 -.00000003  00000-0  00000-0 0  9993
2 53109  70.1425 290.5613 0009028 284.8400  75.1260  6.42583278 93480
UMKA-1 (RS40S)
1 57172U 23091G   26190.85740929  .00004092  00000-0  18688-3 0  9998
2 57172  97.5042 249.4692 0013546  47.0116 313.2253 15.21082977167459
CUBESX-HSE-3 (RS42S)
1 57178U 23091N   26190.78063061  .00009692  00000-0  31773-3 0  9992
2 57178  97.5083 256.6602 0010246  21.1971 338.9692 15.31796363167887
MONITOR-3 (RS58S)
1 57180U 23091Q   26190.85578525  .00007611  00000-0  27829-3 0  9995
2 57180  97.5075 254.4732 0011570  28.2270 331.9594 15.28304744167756
MONITOR-4 (RS57S)
1 57182U 23091S   26190.83358171  .00007373  00000-0  26900-3 0  9992
2 57182  97.5069 254.4232 0011576  28.5756 331.6116 15.28391136167752
MONITOR-2 (RS39S)
1 57184U 23091U   26190.77574367  .00003334  00000-0  16182-3 0  9998
2 57184  97.5062 248.9137 0011931  41.7402 318.4740 15.19123276167382
SVYATOBOR-1 (RS60S)
1 57187U 23091X   26190.86664492  .00006388  00000-0  24360-3 0  9999
2 57187  97.5081 254.8130 0009305  23.2348 336.9310 15.27005883167774
VIZARD-METEO (RS38S)
1 57189U 23091Z   26190.81284299  .00012356  00000-0  34600-3 0  9999
2 57189  97.5083 260.7611 0006162   1.5183 358.6078 15.36760705168169
UTMN-2 (RS27S)
1 57203U 23091AP  26190.85130358  .00009481  00000-0  30327-3 0  9993
2 57203  97.5079 258.3932 0007301   9.9549 350.1836 15.32617529168018
POLYTECH UNIVERSE-3 (RS46S)
1 57191U 23091AB  26190.86574209  .00003287  00000-0  15834-3 0  9991
2 57191  97.5038 248.5073 0016518  55.0481 305.2303 15.19334726167393
